{
  "type": "FeatureCollection",
  "features": [
    {
      "type": "Feature",
      "properties": {
        "code": "BE",
        "name": "Bono East"
      },
      "geometry": {
        "type": "Polygon",
        "coordinates": []
      }
    },
    {
      "type": "Feature",
      "properties": {
        "code": "GA",
        "name": "Greater Accra"
      },
      "geometry": {
        "type": "Polygon",
        "coordinates": []
      }
    },
    {
      "type": "Feature",
      "properties": {
        "code": "AS",
        "name": "Ashanti"
      },
      "geometry": {
        "type": "Polygon",
        "coordinates": []
      }
    }
  ]
}
